CCSDS_OMM_VERS = 2.0
CREATION_DATE  = 
ORIGINATOR     = 

OBJECT_NAME    = COSMOS 1933
OBJECT_ID      = 1988-020A
CENTER_NAME    = EARTH
REF_FRAME      = TEME
TIME_SYSTEM    = UTC
MEAN_ELEMENT_THEORY = SGP/SGP4

EPOCH          = 2025-12-12T00:39:24.122592
MEAN_MOTION    = 15.17098272
ECCENTRICITY   = .000568
INCLINATION    = 82.5136
RA_OF_ASC_NODE = 337.5828
ARG_OF_PERICENTER = 128.8164
MEAN_ANOMALY   = 231.3577

EPHEMERIS_TYPE = 0
CLASSIFICATION_TYPE = U
NORAD_CAT_ID   = 18958
ELEMENT_SET_NO = 999
REV_AT_EPOCH   = 3693
BSTAR          = .30495E-3
MEAN_MOTION_DOT = .6073E-4
MEAN_MOTION_DDOT = 0

CCSDS_OMM_VERS = 2.0
CREATION_DATE  = 
ORIGINATOR     = 

OBJECT_NAME    = SL-3 R/B
OBJECT_ID      = 1988-032B
CENTER_NAME    = EARTH
REF_FRAME      = TEME
TIME_SYSTEM    = UTC
MEAN_ELEMENT_THEORY = SGP/SGP4

EPOCH          = 2025-12-12T03:16:57.722880
MEAN_MOTION    = 15.18732888
ECCENTRICITY   = .0026685
INCLINATION    = 97.5083
RA_OF_ASC_NODE = 324.8614
ARG_OF_PERICENTER = 174.9360
MEAN_ANOMALY   = 185.2149

EPHEMERIS_TYPE = 0
CLASSIFICATION_TYPE = U
NORAD_CAT_ID   = 19046
ELEMENT_SET_NO = 999
REV_AT_EPOCH   = 3881
BSTAR          = .36683E-3
MEAN_MOTION_DOT = .762E-4
MEAN_MOTION_DDOT = 0

CCSDS_OMM_VERS = 2.0
CREATION_DATE  = 
ORIGINATOR     = 

OBJECT_NAME    = SL-16 R/B
OBJECT_ID      = 1988-039B
CENTER_NAME    = EARTH
REF_FRAME      = TEME
TIME_SYSTEM    = UTC
MEAN_ELEMENT_THEORY = SGP/SGP4

EPOCH          = 2025-12-12T02:42:27.012096
MEAN_MOTION    = 14.19596835
ECCENTRICITY   = .0019713
INCLINATION    = 71.0150
RA_OF_ASC_NODE = 253.7240
ARG_OF_PERICENTER = 117.3793
MEAN_ANOMALY   = 242.9341

EPHEMERIS_TYPE = 0
CLASSIFICATION_TYPE = U
NORAD_CAT_ID   = 19120
ELEMENT_SET_NO = 999
REV_AT_EPOCH   = 94595
BSTAR          = -.978E-6
MEAN_MOTION_DOT = -.5E-6
MEAN_MOTION_DDOT = 0

CCSDS_OMM_VERS = 2.0
CREATION_DATE  = 
ORIGINATOR     = 

OBJECT_NAME    = COSMOS 1953
OBJECT_ID      = 1988-050A
CENTER_NAME    = EARTH
REF_FRAME      = TEME
TIME_SYSTEM    = UTC
MEAN_ELEMENT_THEORY = SGP/SGP4

EPOCH          = 2025-12-12T04:19:21.902304
MEAN_MOTION    = 15.26928188
ECCENTRICITY   = .0013763
INCLINATION    = 82.5092
RA_OF_ASC_NODE = 246.1431
ARG_OF_PERICENTER = 73.1807
MEAN_ANOMALY   = 287.0940

EPHEMERIS_TYPE = 0
CLASSIFICATION_TYPE = U
NORAD_CAT_ID   = 19210
ELEMENT_SET_NO = 999
REV_AT_EPOCH   = 2442
BSTAR          = .31775E-3
MEAN_MOTION_DOT = .8456E-4
MEAN_MOTION_DDOT = 0

CCSDS_OMM_VERS = 2.0
CREATION_DATE  = 
ORIGINATOR     = 

OBJECT_NAME    = SL-8 R/B
OBJECT_ID      = 1988-053B
CENTER_NAME    = EARTH
REF_FRAME      = TEME
TIME_SYSTEM    = UTC
MEAN_ELEMENT_THEORY = SGP/SGP4

EPOCH          = 2025-12-12T03:08:25.043424
MEAN_MOTION    = 14.38858628
ECCENTRICITY   = .0019007
INCLINATION    = 74.0479
RA_OF_ASC_NODE = 273.8416
ARG_OF_PERICENTER = 118.2439
MEAN_ANOMALY   = 343.3457

EPHEMERIS_TYPE = 0
CLASSIFICATION_TYPE = U
NORAD_CAT_ID   = 19257
ELEMENT_SET_NO = 999
REV_AT_EPOCH   = 96400
BSTAR          = .14889E-3
MEAN_MOTION_DOT = .433E-5
MEAN_MOTION_DDOT = 0

CCSDS_OMM_VERS = 2.0
CREATION_DATE  = 
ORIGINATOR     = 

OBJECT_NAME    = COSMOS 1975
OBJECT_ID      = 1988-093A
CENTER_NAME    = EARTH
REF_FRAME      = TEME
TIME_SYSTEM    = UTC
MEAN_ELEMENT_THEORY = SGP/SGP4

EPOCH          = 2025-12-12T01:26:08.033280
MEAN_MOTION    = 15.26454605
ECCENTRICITY   = .0012811
INCLINATION    = 82.5203
RA_OF_ASC_NODE = 205.5096
ARG_OF_PERICENTER = 114.4970
MEAN_ANOMALY   = 245.7606

EPHEMERIS_TYPE = 0
CLASSIFICATION_TYPE = U
NORAD_CAT_ID   = 19573
ELEMENT_SET_NO = 999
REV_AT_EPOCH   = 603
BSTAR          = .38938E-3
MEAN_MOTION_DOT = .10206E-3
MEAN_MOTION_DDOT = 0

CCSDS_OMM_VERS = 2.0
CREATION_DATE  = 
ORIGINATOR     = 

OBJECT_NAME    = SL-14 R/B
OBJECT_ID      = 1988-093B
CENTER_NAME    = EARTH
REF_FRAME      = TEME
TIME_SYSTEM    = UTC
MEAN_ELEMENT_THEORY = SGP/SGP4

EPOCH          = 2025-12-11T21:50:03.637248
MEAN_MOTION    = 14.85547750
ECCENTRICITY   = .0020032
INCLINATION    = 82.5303
RA_OF_ASC_NODE = 124.4460
ARG_OF_PERICENTER = 332.2810
MEAN_ANOMALY   = 143.8051

EPHEMERIS_TYPE = 0
CLASSIFICATION_TYPE = U
NORAD_CAT_ID   = 19574
ELEMENT_SET_NO = 999
REV_AT_EPOCH   = 98800
BSTAR          = .96678E-4
MEAN_MOTION_DOT = .862E-5
MEAN_MOTION_DDOT = 0

CCSDS_OMM_VERS = 2.0
CREATION_DATE  = 
ORIGINATOR     = 

OBJECT_NAME    = SL-16 R/B
OBJECT_ID      = 1988-102B
CENTER_NAME    = EARTH
REF_FRAME      = TEME
TIME_SYSTEM    = UTC
MEAN_ELEMENT_THEORY = SGP/SGP4

EPOCH          = 2025-12-12T04:13:18.054624
MEAN_MOTION    = 14.16136261
ECCENTRICITY   = .0012996
INCLINATION    = 70.9997
RA_OF_ASC_NODE = 335.6294
ARG_OF_PERICENTER = 152.8971
MEAN_ANOMALY   = 207.2834

EPHEMERIS_TYPE = 0
CLASSIFICATION_TYPE = U
NORAD_CAT_ID   = 19650
ELEMENT_SET_NO = 999
REV_AT_EPOCH   = 91450
BSTAR          = .1662E-4
MEAN_MOTION_DOT = -.15E-6
MEAN_MOTION_DDOT = 0

CCSDS_OMM_VERS = 2.0
CREATION_DATE  = 
ORIGINATOR     = 

OBJECT_NAME    = INTERCOSMOS 24
OBJECT_ID      = 1989-080A
CENTER_NAME    = EARTH
REF_FRAME      = TEME
TIME_SYSTEM    = UTC
MEAN_ELEMENT_THEORY = SGP/SGP4

EPOCH          = 2025-12-11T22:47:42.692352
MEAN_MOTION    = 12.59437986
ECCENTRICITY   = .1188841
INCLINATION    = 82.6043
RA_OF_ASC_NODE = 161.4665
ARG_OF_PERICENTER = 136.3518
MEAN_ANOMALY   = 233.8091

EPHEMERIS_TYPE = 0
CLASSIFICATION_TYPE = U
NORAD_CAT_ID   = 20261
ELEMENT_SET_NO = 999
REV_AT_EPOCH   = 65575
BSTAR          = .42878E-3
MEAN_MOTION_DOT = .1479E-4
MEAN_MOTION_DDOT = 0

CCSDS_OMM_VERS = 2.0
CREATION_DATE  = 
ORIGINATOR     = 

OBJECT_NAME    = SL-14 R/B
OBJECT_ID      = 1989-080C
CENTER_NAME    = EARTH
REF_FRAME      = TEME
TIME_SYSTEM    = UTC
MEAN_ELEMENT_THEORY = SGP/SGP4

EPOCH          = 2025-12-12T02:30:10.287072
MEAN_MOTION    = 12.50413028
ECCENTRICITY   = .1230667
INCLINATION    = 82.5929
RA_OF_ASC_NODE = 229.4287
ARG_OF_PERICENTER = 25.0399
MEAN_ANOMALY   = 340.5527

EPHEMERIS_TYPE = 0
CLASSIFICATION_TYPE = U
NORAD_CAT_ID   = 20262
ELEMENT_SET_NO = 999
REV_AT_EPOCH   = 64920
BSTAR          = .17708E-3
MEAN_MOTION_DOT = .606E-5
MEAN_MOTION_DDOT = 0

CCSDS_OMM_VERS = 2.0
CREATION_DATE  = 
ORIGINATOR     = 

OBJECT_NAME    = DELTA 1 R/B
OBJECT_ID      = 1989-089B
CENTER_NAME    = EARTH
REF_FRAME      = TEME
TIME_SYSTEM    = UTC
MEAN_ELEMENT_THEORY = SGP/SGP4

EPOCH          = 2025-12-12T03:45:55.772064
MEAN_MOTION    = 14.50571586
ECCENTRICITY   = .0070173
INCLINATION    = 97.0752
RA_OF_ASC_NODE = 202.4869
ARG_OF_PERICENTER = 40.1184
MEAN_ANOMALY   = 320.5165

EPHEMERIS_TYPE = 0
CLASSIFICATION_TYPE = U
NORAD_CAT_ID   = 20323
ELEMENT_SET_NO = 999
REV_AT_EPOCH   = 88304
BSTAR          = .14653E-3
MEAN_MOTION_DOT = .557E-5
MEAN_MOTION_DDOT = 0

CCSDS_OMM_VERS = 2.0
CREATION_DATE  = 
ORIGINATOR     = 

OBJECT_NAME    = ARIANE 40 R/B
OBJECT_ID      = 1990-005H
CENTER_NAME    = EARTH
REF_FRAME      = TEME
TIME_SYSTEM    = UTC
MEAN_ELEMENT_THEORY = SGP/SGP4

EPOCH          = 2025-12-12T04:23:54.502080
MEAN_MOTION    = 14.39798179
ECCENTRICITY   = .001125
INCLINATION    = 98.3243
RA_OF_ASC_NODE = 44.3768
ARG_OF_PERICENTER = 107.2835
MEAN_ANOMALY   = 252.9585

EPHEMERIS_TYPE = 0
CLASSIFICATION_TYPE = U
NORAD_CAT_ID   = 20443
ELEMENT_SET_NO = 999
REV_AT_EPOCH   = 88021
BSTAR          = .17554E-3
MEAN_MOTION_DOT = .509E-5
MEAN_MOTION_DDOT = 0

