COSMOS 1933             
1 18958U 88020A   25346.02736253  .00006073  00000+0  30495-3 0  9996
2 18958  82.5136 337.5828 0005680 128.8164 231.3577 15.17098272 36934
SL-3 R/B                
1 19046U 88032B   25346.13677920  .00007620  00000+0  36683-3 0  9999
2 19046  97.5083 324.8614 0026685 174.9360 185.2149 15.18732888 38810
SL-16 R/B               
1 19120U 88039B   25346.11281264 -.00000050  00000+0 -97800-6 0  9992
2 19120  71.0150 253.7240 0019713 117.3793 242.9341 14.19596835945952
COSMOS 1953             
1 19210U 88050A   25346.18011461  .00008456  00000+0  31775-3 0  9994
2 19210  82.5092 246.1431 0013763  73.1807 287.0940 15.26928188 24420
SL-8 R/B                
1 19257U 88053B   25346.13084541  .00000433  00000+0  14889-3 0  9996
2 19257  74.0479 273.8416 0019007 118.2439 343.3457 14.38858628964004
COSMOS 1975             
1 19573U 88093A   25346.05981520  .00010206  00000+0  38938-3 0  9995
2 19573  82.5203 205.5096 0012811 114.4970 245.7606 15.26454605  6030
SL-14 R/B               
1 19574U 88093B   25345.90976432  .00000862  00000+0  96678-4 0  9998
2 19574  82.5303 124.4460 0020032 332.2810 143.8051 14.85547750988009
SL-16 R/B               
1 19650U 88102B   25346.17590341 -.00000015  00000+0  16620-4 0  9995
2 19650  70.9997 335.6294 0012996 152.8971 207.2834 14.16136261914502
INTERCOSMOS 24          
1 20261U 89080A   25345.94979968  .00001479  00000+0  42878-3 0  9998
2 20261  82.6043 161.4665 1188841 136.3518 233.8091 12.59437986655751
SL-14 R/B               
1 20262U 89080C   25346.10428573  .00000606  00000+0  17708-3 0  9994
2 20262  82.5929 229.4287 1230667  25.0399 340.5527 12.50413028649209
DELTA 1 R/B             
1 20323U 89089B   25346.15689551  .00000557  00000+0  14653-3 0  9992
2 20323  97.0752 202.4869 0070173  40.1184 320.5165 14.50571586883046
ARIANE 40 R/B           
1 20443U 90005H   25346.18326970  .00000509  00000+0  17554-3 0  9991
2 20443  98.3243  44.3768 0011250 107.2835 252.9585 14.39798179880214
